[
    {
        "Altitude(m)": 713937.9509936171,
        "Argument of Periapsis(deg)": 0.010251109067964361,
        "Eccentricity": 0.0,
        "Inclination(deg)": 45.0,
        "Latitude(deg)": -35.60418510496303,
        "Longitude(deg)": 108.89236002931104,
        "Mean Anomaly(deg)": -55.07460501726729,
        "RAAN(deg)": 254.99032325268763,
        "Satellite Name": "Constellation 1 1140",
        "Satellite Number": 1140,
        "Semi-Major Axis(m)": 7083131.272910544,
        "Time(s)": 171
    },
    {
        "Altitude(m)": 713925.6433814162,
        "Argument of Periapsis(deg)": 0.010311057074209765,
        "Eccentricity": 0.0,
        "Inclination(deg)": 45.0,
        "Latitude(deg)": -35.573996692774315,
        "Longitude(deg)": 108.95276966781248,
        "Mean Anomaly(deg)": -55.01390387701734,
        "RAAN(deg)": 254.99026666352208,
        "Satellite Name": "Constellation 1 1140",
        "Satellite Number": 1140,
        "Semi-Major Axis(m)": 7083131.272910544,
        "Time(s)": 172
    },
    {
        "Altitude(m)": 713913.3237939564,
        "Argument of Periapsis(deg)": 0.010371005080455171,
        "Eccentricity": 0.0,
        "Inclination(deg)": 45.0,
        "Latitude(deg)": -35.54377357930785,
        "Longitude(deg)": 109.01313103483379,
        "Mean Anomaly(deg)": -54.95320273676738,
        "RAAN(deg)": 254.9902100743565,
        "Satellite Name": "Constellation 1 1140",
        "Satellite Number": 1140,
        "Semi-Major Axis(m)": 7083131.272910544,
        "Time(s)": 173
    },
    {
        "Altitude(m)": 713900.9922755271,
        "Argument of Periapsis(deg)": 0.010430953086700577,
        "Eccentricity": 0.0,
        "Inclination(deg)": 45.0,
        "Latitude(deg)": -35.51351582803218,
        "Longitude(deg)": 109.07344416525945,
        "Mean Anomaly(deg)": -54.89250159651757,
        "RAAN(deg)": 254.99015348519092,
        "Satellite Name": "Constellation 1 1140",
        "Satellite Number": 1140,
        "Semi-Major Axis(m)": 7083131.272910544,
        "Time(s)": 174
    },
    {
        "Altitude(m)": 713888.6488704637,
        "Argument of Periapsis(deg)": 0.010490901092945983,
        "Eccentricity": 0.0,
        "Inclination(deg)": 45.0,
        "Latitude(deg)": -35.48322350235617,
        "Longitude(deg)": 109.13370909419585,
        "Mean Anomaly(deg)": -54.831800456267636,
        "RAAN(deg)": 254.99009689602536,
        "Satellite Name": "Constellation 1 1140",
        "Satellite Number": 1140,
        "Semi-Major Axis(m)": 7083131.272910544,
        "Time(s)": 175
    },
    {
        "Altitude(m)": 713876.2936231247,
        "Argument of Periapsis(deg)": 0.010550849099191389,
        "Eccentricity": 0.0,
        "Inclination(deg)": 45.0,
        "Latitude(deg)": -35.45289666562925,
        "Longitude(deg)": 109.19392585696885,
        "Mean Anomaly(deg)": -54.771099316017676,
        "RAAN(deg)": 254.9900403068598,
        "Satellite Name": "Constellation 1 1140",
        "Satellite Number": 1140,
        "Semi-Major Axis(m)": 7083131.272910544,
        "Time(s)": 176
    },
    {
        "Altitude(m)": 713863.9265779289,
        "Argument of Periapsis(deg)": 0.010610797105436795,
        "Eccentricity": 0.0,
        "Inclination(deg)": 45.0,
        "Latitude(deg)": -35.42253538114104,
        "Longitude(deg)": 109.2540944891235,
        "Mean Anomaly(deg)": -54.71039817576784,
        "RAAN(deg)": 254.98998371769426,
        "Satellite Name": "Constellation 1 1140",
        "Satellite Number": 1140,
        "Semi-Major Axis(m)": 7083131.272910544,
        "Time(s)": 177
    },
    {
        "Altitude(m)": 713851.5477793075,
        "Argument of Periapsis(deg)": 0.0106707451116822,
        "Eccentricity": 0.0,
        "Inclination(deg)": 45.0,
        "Latitude(deg)": -35.39213971212089,
        "Longitude(deg)": 109.31421485832578,
        "Mean Anomaly(deg)": -54.64969703551798,
        "RAAN(deg)": 254.98992712852865,
        "Satellite Name": "Constellation 1 1140",
        "Satellite Number": 1140,
        "Semi-Major Axis(m)": 7083131.272910544,
        "Time(s)": 178
    },
    {
        "Altitude(m)": 713839.1572717463,
        "Argument of Periapsis(deg)": 0.010730693117927606,
        "Eccentricity": 0.0,
        "Inclination(deg)": 45.0,
        "Latitude(deg)": -35.36170972173822,
        "Longitude(deg)": 109.37428733674858,
        "Mean Anomaly(deg)": -54.588995895268084,
        "RAAN(deg)": 254.98987053936307,
        "Satellite Name": "Constellation 1 1140",
        "Satellite Number": 1140,
        "Semi-Major Axis(m)": 7083131.272910544,
        "Time(s)": 179
    },
    {
        "Altitude(m)": 713826.7550997593,
        "Argument of Periapsis(deg)": 0.01079064112417301,
        "Eccentricity": 0.0,
        "Inclination(deg)": 45.0,
        "Latitude(deg)": -35.33124547310175,
        "Longitude(deg)": 109.4343117924895,
        "Mean Anomaly(deg)": -54.52829475501812,
        "RAAN(deg)": 254.98981395019752,
        "Satellite Name": "Constellation 1 1140",
        "Satellite Number": 1140,
        "Semi-Major Axis(m)": 7083131.272910544,
        "Time(s)": 180
    },
    {
        "Altitude(m)": 713814.3413079045,
        "Argument of Periapsis(deg)": 0.010850589130418416,
        "Eccentricity": 0.0,
        "Inclination(deg)": 45.0,
        "Latitude(deg)": -35.30074702925974,
        "Longitude(deg)": 109.49428826195654,
        "Mean Anomaly(deg)": -54.46759361476829,
        "RAAN(deg)": 254.98975736103196,
        "Satellite Name": "Constellation 1 1140",
        "Satellite Number": 1140,
        "Semi-Major Axis(m)": 7083131.272910544,
        "Time(s)": 181
    },
    {
        "Altitude(m)": 713801.9159407677,
        "Argument of Periapsis(deg)": 0.01091053713666382,
        "Eccentricity": 0.0,
        "Inclination(deg)": 45.0,
        "Latitude(deg)": -35.270214453199465,
        "Longitude(deg)": 109.55421678177093,
        "Mean Anomaly(deg)": -54.40689247451833,
        "RAAN(deg)": 254.98970077186635,
        "Satellite Name": "Constellation 1 1140",
        "Satellite Number": 1140,
        "Semi-Major Axis(m)": 7083131.272910544,
        "Time(s)": 182
    },
    {
        "Altitude(m)": 713789.4790429799,
        "Argument of Periapsis(deg)": 0.010970485142909228,
        "Eccentricity": 0.0,
        "Inclination(deg)": 45.0,
        "Latitude(deg)": -35.23964780784729,
        "Longitude(deg)": 109.6140973887648,
        "Mean Anomaly(deg)": -54.34619133426847,
        "RAAN(deg)": 254.9896441827008,
        "Satellite Name": "Constellation 1 1140",
        "Satellite Number": 1140,
        "Semi-Major Axis(m)": 7083131.272910544,
        "Time(s)": 183
    },
    {
        "Altitude(m)": 713777.0306591993,
        "Argument of Periapsis(deg)": 0.011030433149154634,
        "Eccentricity": 0.0,
        "Inclination(deg)": 45.0,
        "Latitude(deg)": -35.20904715606823,
        "Longitude(deg)": 109.67393011998087,
        "Mean Anomaly(deg)": -54.285490194018585,
        "RAAN(deg)": 254.98958759353522,
        "Satellite Name": "Constellation 1 1140",
        "Satellite Number": 1140,
        "Semi-Major Axis(m)": 7083131.272910544,
        "Time(s)": 184
    },
    {
        "Altitude(m)": 713764.5708341323,
        "Argument of Periapsis(deg)": 0.01109038115540004,
        "Eccentricity": 0.0,
        "Inclination(deg)": 45.0,
        "Latitude(deg)": -35.17841256066588,
        "Longitude(deg)": 109.73371484457404,
        "Mean Anomaly(deg)": -54.22478905376862,
        "RAAN(deg)": 254.98953100436967,
        "Satellite Name": "Constellation 1 1140",
        "Satellite Number": 1140,
        "Semi-Major Axis(m)": 7083131.272910544,
        "Time(s)": 185
    },
    {
        "Altitude(m)": 713752.0996125097,
        "Argument of Periapsis(deg)": 0.011150329161645444,
        "Eccentricity": 0.0,
        "Inclination(deg)": 45.0,
        "Latitude(deg)": -35.14774408438254,
        "Longitude(deg)": 109.79345193619699,
        "Mean Anomaly(deg)": -54.16408791351878,
        "RAAN(deg)": 254.9894744152041,
        "Satellite Name": "Constellation 1 1140",
        "Satellite Number": 1140,
        "Semi-Major Axis(m)": 7083131.272910544,
        "Time(s)": 186
    },
    {
        "Altitude(m)": 713739.6170391011,
        "Argument of Periapsis(deg)": 0.01121027716789085,
        "Eccentricity": 0.0,
        "Inclination(deg)": 45.0,
        "Latitude(deg)": -35.11704178989836,
        "Longitude(deg)": 109.85314126441884,
        "Mean Anomaly(deg)": -54.103386773268916,
        "RAAN(deg)": 254.9894178260385,
        "Satellite Name": "Constellation 1 1140",
        "Satellite Number": 1140,
        "Semi-Major Axis(m)": 7083131.272910544,
        "Time(s)": 187
    },
    {
        "Altitude(m)": 713727.1231587174,
        "Argument of Periapsis(deg)": 0.011270225174136258,
        "Eccentricity": 0.0,
        "Inclination(deg)": 45.0,
        "Latitude(deg)": -35.086305739831545,
        "Longitude(deg)": 109.91278286711086,
        "Mean Anomaly(deg)": -54.04268563301898,
        "RAAN(deg)": 254.98936123687295,
        "Satellite Name": "Constellation 1 1140",
        "Satellite Number": 1140,
        "Semi-Major Axis(m)": 7083131.272910544,
        "Time(s)": 188
    },
    {
        "Altitude(m)": 713714.6180161978,
        "Argument of Periapsis(deg)": 0.011330173180381662,
        "Eccentricity": 0.0,
        "Inclination(deg)": 45.0,
        "Latitude(deg)": -35.0555359967383,
        "Longitude(deg)": 109.97237678234806,
        "Mean Anomaly(deg)": -53.98198449276902,
        "RAAN(deg)": 254.9893046477074,
        "Satellite Name": "Constellation 1 1140",
        "Satellite Number": 1140,
        "Semi-Major Axis(m)": 7083131.272910544,
        "Time(s)": 189
    }
]